OBJECT_NAME,OBJECT_ID,EPOCH,MEAN_MOTION,ECCENTRICITY,INCLINATION,RA_OF_ASC_NODE,ARG_OF_PERICENTER,MEAN_ANOMALY,EPHEMERIS_TYPE,CLASSIFICATION_TYPE,NORAD_CAT_ID,ELEMENT_SET_NO,REV_AT_EPOCH,BSTAR,MEAN_MOTION_DOT,MEAN_MOTION_DDOT
STARLINK-5819,2023-028AR,2026-05-29T01:03:35.570880,14.98321338,.0002568,70.0006,21.6851,271.2361,88.8504,0,U,55780,999,17857,.28443E-5,-.59E-6,0
STARLINK-5820,2023-028AS,2026-05-29T01:21:37.604736,14.98326442,.0002671,69.9999,21.7647,269.8824,90.2029,0,U,55781,999,17857,-.20361E-4,-.336E-5,0
STARLINK-5826,2023-028AT,2026-05-29T00:21:25.593120,14.98354329,.0002752,69.9999,2.1099,269.7971,90.2872,0,U,55782,999,17905,.23487E-3,.2712E-4,0
STARLINK-5825,2023-028AU,2026-05-29T00:21:13.827168,14.98329869,.0002782,70.0002,2.1085,270.1371,89.9470,0,U,55783,999,17905,-.21301E-4,-.347E-5,0
STARLINK-5797,2023-028AV,2026-05-29T00:00:04.000320,14.98313018,.0002564,70.0011,2.0465,273.2239,96.7613,0,U,55784,999,573,.33958E-2,.40643E-3,0
STARLINK-5818,2023-028AW,2026-05-29T00:15:12.860064,14.98336866,.0002167,69.9995,2.0943,272.8891,87.2020,0,U,55785,999,17905,-.46179E-5,-.148E-5,0
STARLINK-5823,2023-028AX,2026-05-29T04:00:03.998880,14.98351520,.0003026,70.0009,1.6258,272.5909,277.0181,0,U,55786,999,575,-.28806E-2,-.34315E-3,0
STARLINK-5811,2023-028AY,2026-05-29T00:09:12.363840,14.98330227,.0002751,69.9995,2.0796,268.8123,91.2720,0,U,55787,999,17905,.27985E-4,.241E-5,0
STARLINK-5804,2023-028AZ,2026-05-29T00:03:11.731968,14.98330212,.0002605,69.9995,2.0649,268.4715,91.6145,0,U,55788,999,17905,.31051E-4,.278E-5,0
STARLINK-5815,2023-028BA,2026-05-29T01:03:15.894144,14.98330911,.0002547,70.0001,1.8080,265.9123,94.1745,0,U,55789,999,17906,-.33851E-4,-.497E-5,0
STARLINK-5813,2023-028BB,2026-05-29T01:09:30.655008,14.98334069,.0002921,69.9999,1.8228,269.1502,90.9322,0,U,55790,999,17906,-.45465E-4,-.635E-5,0
STARLINK-5807,2023-028BC,2026-05-28T23:51:10.588320,14.98328459,.000273,69.9996,2.0353,268.8576,91.2270,0,U,55791,999,17905,-.16598E-4,-.291E-5,0
ONEWEB-0530,2023-029A,2026-05-28T20:20:41.311968,13.20769927,.0002358,87.9169,278.3263,100.3251,259.8148,0,U,55796,999,15859,.12919E-3,.66E-6,0
ONEWEB-0534,2023-029B,2026-05-28T20:03:42.828768,13.20771270,.0001818,87.9170,278.3288,97.1737,262.9603,0,U,55797,999,15859,.11081E-3,.58E-6,0
ONEWEB-0556,2023-029C,2026-05-28T22:02:32.538624,13.20771806,.0002283,87.9168,278.3125,78.3648,281.7741,0,U,55798,999,15860,-.86671E-4,-.22E-6,0
ONEWEB-0562,2023-029D,2026-05-28T21:43:06.566304,13.20771711,.000271,87.9169,278.2956,92.0423,268.1021,0,U,55799,999,15860,-.3927E-4,-.3E-7,0
ONEWEB-0563,2023-029E,2026-05-28T19:46:46.210944,13.20771835,.00017,87.9167,278.3426,95.4566,264.6761,0,U,55800,999,15858,-.92232E-4,-.25E-6,0
ONEWEB-0564,2023-029F,2026-05-28T19:37:04.308672,13.20773102,.0002298,87.9169,278.3169,97.4643,262.6751,0,U,55801,999,15859,-.11868E-3,-.35E-6,0
ONEWEB-0638,2023-029G,2026-05-28T21:45:57.318624,13.14501707,.0002161,87.8935,293.5982,85.3588,274.7789,0,U,55802,999,15686,-.29554E-4,.2E-7,0
ONEWEB-0639,2023-029H,2026-05-29T00:02:44.736288,13.19726207,.0000877,87.9152,308.8005,77.4824,282.6406,0,U,55803,999,15637,.11598E-3,.59E-6,0
ONEWEB-0640,2023-029J,2026-05-28T21:59:39.353280,13.14502104,.0001918,87.8935,293.5871,76.4071,283.7272,0,U,55804,999,15688,.32836E-3,.135E-5,0
ONEWEB-0641,2023-029K,2026-05-28T23:55:54.419232,13.19726757,.0001611,87.9156,308.7891,94.2370,265.8947,0,U,55805,999,15638,.11128E-3,.57E-6,0
ONEWEB-0642,2023-029L,2026-05-28T23:49:05.176128,13.19726149,.0000938,87.9152,308.8034,96.3087,263.8153,0,U,55806,999,15637,.28949E-3,.129E-5,0
ONEWEB-0643,2023-029M,2026-05-28T21:16:16.680288,13.14501950,.0001228,87.8937,293.5805,111.6513,248.4748,0,U,55807,999,15685,-.71953E-3,-.254E-5,0
ONEWEB-0644,2023-029N,2026-05-28T23:42:14.588640,13.19726534,.0001441,87.9150,308.8062,96.4754,263.6543,0,U,55808,999,15637,-.66151E-4,-.14E-6,0
ONEWEB-0645,2023-029P,2026-05-28T22:24:55.361376,13.19726647,.0001529,87.9150,308.8137,81.0929,279.0377,0,U,55809,999,15636,.10894E-3,.57E-6,0
ONEWEB-0646,2023-029Q,2026-05-28T22:49:57.698400,13.19725365,.00015,87.9151,308.8102,96.2553,263.8751,0,U,55810,999,15635,-.60625E-4,-.11E-6,0
ONEWEB-0648,2023-029R,2026-05-28T22:20:12.827328,13.14503955,.0001103,87.8946,293.5432,73.7439,286.3812,0,U,55811,999,15686,.51428E-3,.203E-5,0
ONEWEB-0649,2023-029S,2026-05-28T23:26:20.427648,13.19726427,.0001582,87.9152,308.8030,88.5269,271.6045,0,U,55812,999,15639,-.12375E-3,-.37E-6,0
ONEWEB-0650,2023-029T,2026-05-28T23:19:31.270080,13.19726515,.000134,87.9151,308.8065,95.1443,264.9843,0,U,55813,999,15636,-.1021E-3,-.28E-6,0
