STARLINK-5819           
1 55780U 23028AR  26149.04416170 -.00000059  00000+0  28443-5 0  9995
2 55780  70.0006  21.6851 0002568 271.2361  88.8504 14.98321338178579
STARLINK-5820           
1 55781U 23028AS  26149.05668524 -.00000336  00000+0 -20361-4 0  9998
2 55781  69.9999  21.7647 0002671 269.8824  90.2029 14.98326442178574
STARLINK-5826           
1 55782U 23028AT  26149.01487955  .00002712  00000+0  23487-3 0  9991
2 55782  69.9999   2.1099 0002752 269.7971  90.2872 14.98354329179056
STARLINK-5825           
1 55783U 23028AU  26149.01474337 -.00000347  00000+0 -21301-4 0  9990
2 55783  70.0002   2.1085 0002782 270.1371  89.9470 14.98329869179053
STARLINK-5797           
1 55784U 23028AV  26149.00004630  .00040643  00000+0  33958-2 0  9995
2 55784  70.0011   2.0465 0002564 273.2239  96.7613 14.98313018  5737
STARLINK-5818           
1 55785U 23028AW  26149.01056551 -.00000148  00000+0 -46179-5 0  9996
2 55785  69.9995   2.0943 0002167 272.8891  87.2020 14.98336866179055
STARLINK-5823           
1 55786U 23028AX  26149.16671295 -.00034315  00000+0 -28806-2 0  9998
2 55786  70.0009   1.6258 0003026 272.5909 277.0181 14.98351520  5757
STARLINK-5811           
1 55787U 23028AY  26149.00639310  .00000241  00000+0  27985-4 0  9992
2 55787  69.9995   2.0796 0002751 268.8123  91.2720 14.98330227179052
STARLINK-5804           
1 55788U 23028AZ  26149.00221912  .00000278  00000+0  31051-4 0  9997
2 55788  69.9995   2.0649 0002605 268.4715  91.6145 14.98330212179050
STARLINK-5815           
1 55789U 23028BA  26149.04393396 -.00000497  00000+0 -33851-4 0  9993
2 55789  70.0001   1.8080 0002547 265.9123  94.1745 14.98330911179069
STARLINK-5813           
1 55790U 23028BB  26149.04827147 -.00000635  00000+0 -45465-4 0  9999
2 55790  69.9999   1.8228 0002921 269.1502  90.9322 14.98334069179064
STARLINK-5807           
1 55791U 23028BC  26148.99387255 -.00000291  00000+0 -16598-4 0  9997
2 55791  69.9996   2.0353 0002730 268.8576  91.2270 14.98328459179050
ONEWEB-0530             
1 55796U 23029A   26148.84770037  .00000066  00000+0  12919-3 0  9991
2 55796  87.9169 278.3263 0002358 100.3251 259.8148 13.20769927158596
ONEWEB-0534             
1 55797U 23029B   26148.83591237  .00000058  00000+0  11081-3 0  9994
2 55797  87.9170 278.3288 0001818  97.1737 262.9603 13.20771270158593
ONEWEB-0556             
1 55798U 23029C   26148.91843216 -.00000022  00000+0 -86671-4 0  9992
2 55798  87.9168 278.3125 0002283  78.3648 281.7741 13.20771806158609
ONEWEB-0562             
1 55799U 23029D   26148.90493711 -.00000003  00000+0 -39270-4 0  9995
2 55799  87.9169 278.2956 0002710  92.0423 268.1021 13.20771711158606
ONEWEB-0563             
1 55800U 23029E   26148.82414596 -.00000025  00000+0 -92232-4 0  9994
2 55800  87.9167 278.3426 0001700  95.4566 264.6761 13.20771835158589
ONEWEB-0564             
1 55801U 23029F   26148.81741098 -.00000035  00000+0 -11868-3 0  9990
2 55801  87.9169 278.3169 0002298  97.4643 262.6751 13.20773102158594
ONEWEB-0638             
1 55802U 23029G   26148.90691341  .00000002  00000+0 -29554-4 0  9991
2 55802  87.8935 293.5982 0002161  85.3588 274.7789 13.14501707156866
ONEWEB-0639             
1 55803U 23029H   26149.00190667  .00000059  00000+0  11598-3 0  9998
2 55803  87.9152 308.8005 0000877  77.4824 282.6406 13.19726207156371
ONEWEB-0640             
1 55804U 23029J   26148.91642770  .00000135  00000+0  32836-3 0  9998
2 55804  87.8935 293.5871 0001918  76.4071 283.7272 13.14502104156883
ONEWEB-0641             
1 55805U 23029K   26148.99715763  .00000057  00000+0  11128-3 0  9994
2 55805  87.9156 308.7891 0001611  94.2370 265.8947 13.19726757156383
ONEWEB-0642             
1 55806U 23029L   26148.99242102  .00000129  00000+0  28949-3 0  9996
2 55806  87.9152 308.8034 0000938  96.3087 263.8153 13.19726149156370
ONEWEB-0643             
1 55807U 23029M   26148.88630417 -.00000254  00000+0 -71953-3 0  9999
2 55807  87.8937 293.5805 0001228 111.6513 248.4748 13.14501950156853
ONEWEB-0644             
1 55808U 23029N   26148.98766885 -.00000014  00000+0 -66151-4 0  9999
2 55808  87.9150 308.8062 0001441  96.4754 263.6543 13.19726534156372
ONEWEB-0645             
1 55809U 23029P   26148.93397409  .00000057  00000+0  10894-3 0  9994
2 55809  87.9150 308.8137 0001529  81.0929 279.0377 13.19726647156367
ONEWEB-0646             
1 55810U 23029Q   26148.95136225 -.00000011  00000+0 -60625-4 0  9995
2 55810  87.9151 308.8102 0001500  96.2553 263.8751 13.19725365156354
ONEWEB-0648             
1 55811U 23029R   26148.93070402  .00000203  00000+0  51428-3 0  9999
2 55811  87.8946 293.5432 0001103  73.7439 286.3812 13.14503955156862
ONEWEB-0649             
1 55812U 23029S   26148.97662532 -.00000037  00000+0 -12375-3 0  9990
2 55812  87.9152 308.8030 0001582  88.5269 271.6045 13.19726427156392
ONEWEB-0650             
1 55813U 23029T   26148.97188970 -.00000028  00000+0 -10210-3 0  9996
2 55813  87.9151 308.8065 0001340  95.1443 264.9843 13.19726515156366
